Model Marker Errors from IK
version=1
nRows=121
nColumns=4
inDegrees=no
endheader
time	total_squared_error	marker_error_RMS	marker_error_max
      0.00000000	      0.03533305	      0.03686412	      0.12187570
      0.00833333	      0.03527863	      0.03683572	      0.12189632
      0.01666667	      0.03526567	      0.03682895	      0.12212532
      0.02500000	      0.03523995	      0.03681553	      0.12216234
      0.03333333	      0.03514831	      0.03676762	      0.12201777
      0.04166667	      0.03503245	      0.03670697	      0.12226266
      0.05000000	      0.03497309	      0.03667586	      0.12242849
      0.05833333	      0.03498855	      0.03668397	      0.12256301
      0.06666667	      0.03491052	      0.03664304	      0.12286544
      0.07500000	      0.03469899	      0.03653186	      0.12279581
      0.08333333	      0.03450574	      0.03642999	      0.12291153
      0.09166667	      0.03424995	      0.03629471	      0.12282077
      0.10000000	      0.03409137	      0.03621059	      0.12279185
      0.10833333	      0.03383507	      0.03607421	      0.12269645
      0.11666667	      0.03366460	      0.03598322	      0.12274504
      0.12500000	      0.03374265	      0.03602491	      0.12296135
      0.13333333	      0.03340546	      0.03584446	      0.12285612
      0.14166667	      0.03333114	      0.03580457	      0.12281662
      0.15000000	      0.03318455	      0.03572574	      0.12263444
      0.15833333	      0.03305486	      0.03565587	      0.12231981
      0.16666667	      0.03312589	      0.03569416	      0.12248802
      0.17500000	      0.03313058	      0.03569668	      0.12246604
      0.18333333	      0.03312333	      0.03569277	      0.12228164
      0.19166667	      0.03312792	      0.03569525	      0.12230876
      0.20000000	      0.03310798	      0.03568451	      0.12228784
      0.20833333	      0.03315600	      0.03571037	      0.12223206
      0.21666667	      0.03315352	      0.03570904	      0.12208571
      0.22500000	      0.03314366	      0.03570373	      0.12196412
      0.23333333	      0.03316993	      0.03571788	      0.12160033
      0.24166667	      0.03318236	      0.03572456	      0.12141161
      0.25000000	      0.03318708	      0.03572710	      0.12122223
      0.25833333	      0.03316033	      0.03571270	      0.12101341
      0.26666667	      0.03311513	      0.03568836	      0.12057424
      0.27500000	      0.03306332	      0.03566043	      0.12016793
      0.28333333	      0.03318226	      0.03572451	      0.12006717
      0.29166667	      0.03317520	      0.03572071	      0.12000733
      0.30000000	      0.03322252	      0.03574618	      0.11994742
      0.30833333	      0.03334023	      0.03580945	      0.11982566
      0.31666667	      0.03330194	      0.03578888	      0.11947561
      0.32500000	      0.03339437	      0.03583851	      0.11941194
      0.33333333	      0.03333424	      0.03580623	      0.11900672
      0.34166667	      0.03340238	      0.03584281	      0.11913271
      0.35000000	      0.03330531	      0.03579069	      0.11893260
      0.35833333	      0.03318871	      0.03572799	      0.11858319
      0.36666667	      0.03323401	      0.03575236	      0.11830639
      0.37500000	      0.03337707	      0.03582923	      0.11853142
      0.38333333	      0.03317731	      0.03572185	      0.11841026
      0.39166667	      0.03300557	      0.03562927	      0.11770764
      0.40000000	      0.03273339	      0.03548206	      0.11721252
      0.40833333	      0.03262707	      0.03542439	      0.11715683
      0.41666667	      0.03245332	      0.03532994	      0.11779875
      0.42500000	      0.03242488	      0.03531446	      0.11801490
      0.43333333	      0.03193492	      0.03504663	      0.12055137
      0.44166667	      0.03169290	      0.03491357	      0.12073480
      0.45000000	      0.03142477	      0.03476557	      0.12064465
      0.45833333	      0.03096743	      0.03451166	      0.12206780
      0.46666667	      0.03088102	      0.03446348	      0.12219752
      0.47500000	      0.01854465	      0.02670685	      0.07370778
      0.48333333	      0.01855036	      0.02671096	      0.07376126
      0.49166667	      0.01863024	      0.02676841	      0.07414742
      0.50000000	      0.01873177	      0.02684125	      0.07442439
      0.50833333	      0.01880513	      0.02689376	      0.07452858
      0.51666667	      0.01903177	      0.02705533	      0.07466072
      0.52500000	      0.01911826	      0.02711674	      0.07483980
      0.53333333	      0.01918916	      0.02716698	      0.07466338
      0.54166667	      0.01916482	      0.02714974	      0.07424754
      0.55000000	      0.01922775	      0.02719428	      0.07445850
      0.55833333	      0.01935535	      0.02728437	      0.07452476
      0.56666667	      0.01927258	      0.02722596	      0.07385532
      0.57500000	      0.01935207	      0.02728206	      0.07380524
      0.58333333	      0.01944314	      0.02734617	      0.07378466
      0.59166667	      0.01956555	      0.02743212	      0.07375822
      0.60000000	      0.01970898	      0.02753249	      0.07401574
      0.60833333	      0.01990312	      0.02766776	      0.07437414
      0.61666667	      0.02024438	      0.02790395	      0.07464258
      0.62500000	      0.02038517	      0.02800080	      0.07458653
      0.63333333	      0.02066816	      0.02819449	      0.07497295
      0.64166667	      0.02081578	      0.02829500	      0.07515747
      0.65000000	      0.02086106	      0.02832576	      0.07526736
      0.65833333	      0.02092721	      0.02837063	      0.07545650
      0.66666667	      0.02088943	      0.02834501	      0.07560712
      0.67500000	      0.02088356	      0.02834103	      0.07562267
      0.68333333	      0.02074384	      0.02824606	      0.07560040
      0.69166667	      0.02049894	      0.02807883	      0.07542582
      0.70000000	      0.02021356	      0.02788269	      0.07514032
      0.70833333	      0.01991639	      0.02767697	      0.07476105
      0.71666667	      0.01952090	      0.02740080	      0.07404182
      0.72500000	      0.01911303	      0.02711303	      0.07325953
      0.73333333	      0.01874557	      0.02685114	      0.07236788
      0.74166667	      0.01855709	      0.02671580	      0.07169270
      0.75000000	      0.01817838	      0.02644180	      0.07123268
      0.75833333	      0.01801457	      0.02632239	      0.07086201
      0.76666667	      0.01798401	      0.02630005	      0.07074021
      0.77500000	      0.01791229	      0.02624756	      0.07053623
      0.78333333	      0.01779682	      0.02616282	      0.07023962
      0.79166667	      0.01787739	      0.02622197	      0.07025876
      0.80000000	      0.01791862	      0.02625219	      0.07025815
      0.80833333	      0.01800876	      0.02631815	      0.07046625
      0.81666667	      0.01817657	      0.02644048	      0.07096424
      0.82500000	      0.01822773	      0.02647766	      0.07128010
      0.83333333	      0.01845314	      0.02664087	      0.07201221
      0.84166667	      0.01860952	      0.02675352	      0.07234647
      0.85000000	      0.01881393	      0.02690005	      0.07293945
      0.85833333	      0.01897672	      0.02701618	      0.07339367
      0.86666667	      0.01868541	      0.02680801	      0.07336656
      0.87500000	      0.01855902	      0.02671720	      0.07335704
      0.88333333	      0.01818264	      0.02644489	      0.07298013
      0.89166667	      0.01836763	      0.02657908	      0.07381585
      0.90000000	      0.01835802	      0.02657212	      0.07510729
      0.90833333	      0.01833762	      0.02655736	      0.07559768
      0.91666667	      0.01831552	      0.02654135	      0.07545199
      0.92500000	      0.01849024	      0.02666764	      0.07557095
      0.93333333	      0.01882433	      0.02690749	      0.07613486
      0.94166667	      0.01924643	      0.02720749	      0.07654858
      0.95000000	      0.01956603	      0.02743245	      0.07699996
      0.95833333	      0.01979615	      0.02759330	      0.07704697
      0.96666667	      0.02018452	      0.02786266	      0.07805062
      0.97500000	      0.02066096	      0.02818958	      0.07860459
      0.98333333	      0.02081814	      0.02829660	      0.07889218
      0.99166667	      0.02092930	      0.02837205	      0.07893682
      1.00000000	      0.02098518	      0.02840990	      0.07898293
